#dP2024 12  2 18  0  0.00000000      96 __u+U IGS20 EXT  IAC
## 2343 151200.00000000   900.00000000 60646 0.7500000000000
+   52   G02G03G04G05G06G07G08G09G10G11G12G13G14G15G16G17G18
+        G19G20G21G22G23G24G25G26G27G28G29G30G31G32R01R02R03
+        R04R05R07R08R09R11R12R14R15R16R17R18R19R20R21R22R24
+        R26  0  0  0  0  0  0  0  0  0  0  0  0  0  0  0  0
+          0  0  0  0  0  0  0  0  0  0  0  0  0  0  0  0  0
++         7  9  7  7  7  7  6  6  9  6  7  6  8  7  7  6  6
++         7  7  6  7  8  8  7  7  6  6  5  8  7  7  8 10  7
++         7  8  8  8  7  7  8  9  8  9  7  8  9  8  8  8  9
++         7  0  0  0  0  0  0  0  0  0  0  0  0  0  0  0  0
++         0  0  0  0  0  0  0  0  0  0  0  0  0  0  0  0  0
%c M  cc GPS ccc cccc cccc cccc cccc ccccc ccccc ccccc ccccc
%c cc cc ccc ccc cccc cccc cccc cccc ccccc ccccc ccccc ccccc
%f  0.0000000  0.000000000  0.00000000000  0.000000000000000
%f  0.0000000  0.000000000  0.00000000000  0.000000000000000
%i    0    0    0    0      0      0      0      0         0
%i    0    0    0    0      0      0      0      0         0
/* IAC                                ULTRA-RAPID PREDICTION
/* S/V CLOCKS ARE ALIGNED TO GNSS TIME                      
/* G:C1WC2W R:C1PC2P E:C1XC5X C:C2IC6I J:C1CC2S             
/* PCV:IGS20_2317 OL/AL:FES2004  NONE     YN ORB:CoN CLK:CoN
*  2024 12 03  2  0  0.00000000
PG02  17275.902723   3768.658484  20399.342258   -300.914912
PG03  20131.282546  -8634.365674  14776.044296    615.295001
PG04  25412.086293   -222.062865  -7971.626877    489.541839
PG05 -13905.618985  -6297.676124 -21917.706085   -194.836975
PG06  -4759.325567 -25442.653498   5749.670049    -14.676405
PG07  10354.106585 -13230.479012 -19928.224563    -17.097543
PG08  25772.924070   6335.360262  -3885.105219    429.072531
PG09  20245.919806  -7877.712321 -15416.437322    470.409988
PG10  -7361.816382  21943.268914  12939.288388   -219.067296
PG11 -12383.913006 -22296.697504  -7484.456853   -752.011866
PG12 -19931.248463   3744.619231  16842.156782   -555.941325
PG13 -20574.016385 -13913.813985  -9971.261322    688.470735
PG14  10740.547257 -22359.184998   9211.059400    552.323091
PG15 -26195.027830  -3363.533039  -4009.466420    234.957078
PG16   9917.958037  11789.772118 -21968.051883   -113.046958
PG17   4974.869844 -14512.235259  22103.562755    535.015152
PG18  -8679.039033  15624.989629 -19539.421257   -660.578265
PG19  -7055.150283 -16250.199805  19778.914254    569.642765
PG20  -6097.158894 -16988.923813 -19448.683968    368.221320
PG21  18266.949790  10944.428583  16908.890638     95.959826
PG22   4892.899310 -20895.291522  16238.537093    -83.757760
PG23 -16719.964837  20465.243070   -518.501770    375.657895
PG24 -17970.602083  -6146.236816  18257.140327   -476.391929
PG25 -19491.857532  16285.312255   6926.571048    498.499871
PG26   1739.463011  20021.915892 -17350.329367      5.167040
PG27  19322.669663  12862.801127 -13595.590339    -34.461326
PG28   4253.597849  25069.174376   7656.529919   -497.037609
PG29 -21010.053572   5563.752132 -15393.833876   -559.067370
PG30   2112.761891 -22690.672431 -13269.980620   -269.469416
PG31  10473.797909  24017.635788  -3113.724445   -220.693227
PG32   -102.147376  15396.251538  21878.609308   -565.015476
PR01  24539.336102  -6492.256064  -2492.217162    106.430534
PR02  14808.022087 -10886.454199 -17682.739991    -39.304328
PR03  -3948.590273 -10187.543525 -23001.749261    112.500327
PR04 -19741.095271  -3887.336801 -15637.940583    266.736779
PR05 -25123.277984   4318.358352     93.006297    141.608393
PR07   4513.092688  10095.748723  23027.986456     96.174159
PR08  19987.986083   3690.288650  15498.648617     -6.180806
PR09  -9858.036276  23042.300627   4992.250751    223.985933
PR11   7174.340980  11059.725392 -21834.161180      5.605386
PR12  13272.704731  -9598.636715 -19540.635068     47.941438
PR14   1472.869275 -22484.625141  11944.102526     27.343967
PR15  -8102.590847  -9375.925493  22307.927367     73.512262
PR16 -13122.415922   9516.011968  19711.465524     31.310907
PR17 -11284.547923 -20572.974482  10073.941046    145.157816
PR18 -17766.464111 -17152.549148  -6271.440981    174.835881
PR19 -15989.482098  -7148.599371 -18539.240593   -300.553869
PR20  -3302.025096  12063.575228 -22221.179602   -122.703418
PR21  10414.458295  20479.825585 -11041.423650   -156.325604
PR22  17708.183410  16780.466482   7499.889172    -29.051165
PR24   2703.990155 -12856.835580  21892.665008    -82.516774
PR26  18698.284842   4418.551075  16788.151535   -133.091134
*  2024 12 03  2 15  0.00000000
PG02  18175.479075   5731.986053  19121.501030   -300.907044
PG03  19096.316341  -7114.753937  16807.678366    615.303385
PG04  26116.600085    124.961948  -5247.947858    489.547510
PG05 -12480.226373  -8321.959166 -22095.759975   -194.838010
PG06  -4311.089304 -24749.456828   8512.311708    -14.702900
PG07  11366.704507 -10997.292536 -20737.899803    -17.096092
PG08  25171.319868   6514.908440  -6610.442477    429.081036
PG09  21838.602327  -7503.804705 -13272.787720    470.424945
PG10  -8309.789895  22869.170984  10453.311193   -219.080817
PG11 -12400.110372 -23034.850399  -4737.005600   -752.012611
PG12 -18656.784086   2100.830918  18484.133060   -555.943517
PG13 -19335.064591 -13728.331195 -12437.679360    688.472063
PG14  11543.563245 -22871.628568   6572.882734    552.330145
PG15 -25644.992810  -3667.210435  -6720.889372    234.961189
PG16   8229.570471  13528.390102 -21615.861792   -113.038205
PG17   7341.289064 -14011.779598  21775.576471    535.001264
PG18  -9589.285948  13499.697603 -20682.945934   -660.578159
PG19  -4769.405478 -15750.858999  20793.575875    569.646618
PG20  -4976.670280 -18836.343797 -18032.777309    368.221026
PG21  18962.824826  12524.105242  14981.279633     95.958945
PG22   6150.206327 -22002.775705  14194.857920    -83.760118
PG23 -16751.711607  20154.294190  -3418.758407    375.664907
PG24 -18778.048800  -8069.782012  16704.211039   -476.389477
PG25 -19126.144054  15315.086751   9555.936736    498.499566
PG26    516.505627  21463.546205 -15563.095277      5.154778
PG27  17701.626962  12808.269697 -15698.042122    -34.461122
PG28   3627.990934  24221.928639  10258.504868   -497.047643
PG29 -22561.188898   5050.756464 -13227.167834   -559.064584
PG30   2984.735650 -21234.926818 -15351.552368   -269.462231
PG31  10249.902155  24282.152926   -258.912279   -220.692599
PG32  -2538.549121  15072.115845  21939.724768   -565.010314
PR01  24608.483060  -6665.864907    720.069413    106.431751
PR02  16790.306968 -11425.526944 -15440.713334    -39.304129
PR03  -1161.442239 -10797.977401 -23038.402569    112.500995
PR04 -17684.131705  -4185.842000 -17862.198608    266.738365
PR05 -24901.683739   4459.337226  -3131.717065    141.609003
PR07   1736.940387  10691.829498  23130.782676     96.174897
PR08  17970.030092   4005.095465  17734.704213     -6.180644
PR09  -9553.467455  22297.084331   8038.968769    223.987924
PR11   6461.794706  13581.015161 -20600.974683      5.604596
PR12  12466.966753  -7224.094903 -21033.707673     47.941951
PR14   1749.718483 -23756.728791   9103.921585     27.344135
PR15  -7338.787632 -11953.411013  21317.083496     73.511830
PR16 -12309.850115   7127.441183  21186.183893     31.311322
PR17 -10460.775327 -19412.777032  12876.013427    145.160854
PR18 -18296.306043 -17462.760106  -3098.417960    174.837598
PR19 -17472.527974  -8726.572173 -16403.836341   -300.554934
PR20  -5034.930435   9869.022313 -22963.031075   -122.703936
PR21   9521.215907  19220.348395 -13774.318948   -156.328379
PR22  18285.453083  17248.663899   4399.066482    -29.062002
PR24   4517.163976 -10795.897756  22691.588084    -82.518077
PR26  16531.805572   4793.465594  18836.931148   -133.090796
EOF
